[{"OBJECT_NAME":"OBJECT B","OBJECT_ID":"2025-284B","EPOCH":"2026-03-09T22:41:21.082560","MEAN_MOTION":13.97295842,"ECCENTRICITY":0.00117879,"INCLINATION":80.3988,"RA_OF_ASC_NODE":32.8503,"ARG_OF_PERICENTER":139.3103,"MEAN_ANOMALY":220.8941,"EPHEMERIS_TYPE":0,"CLASSIFICATION_TYPE":"U","NORAD_CAT_ID":66914,"ELEMENT_SET_NO":999,"REV_AT_EPOCH":1362,"BSTAR":0.00013516882,"MEAN_MOTION_DOT":1.99e-6,"MEAN_MOTION_DDOT":0},{"OBJECT_NAME":"DELTA 1 DEB","OBJECT_ID":"1972-058CF","EPOCH":"2026-03-09T00:54:11.448864","MEAN_MOTION":14.08358242,"ECCENTRICITY":0.03210583,"INCLINATION":97.9906,"RA_OF_ASC_NODE":106.7493,"ARG_OF_PERICENTER":186.8897,"MEAN_ANOMALY":172.7809,"EPHEMERIS_TYPE":0,"CLASSIFICATION_TYPE":"U","NORAD_CAT_ID":7940,"ELEMENT_SET_NO":999,"REV_AT_EPOCH":70690,"BSTAR":0.00047666873,"MEAN_MOTION_DOT":1.271e-5,"MEAN_MOTION_DDOT":0}]
